IRIDIUM 159             
1 43578U 18061K   25021.59368293  .00000601  00000+0  20739-3 0  9998
2 43578  86.3947 270.4729 0002033  78.2386 281.9037 14.34225717340057
IRIDIUM 180             
1 43922U 19002A   25021.59319385  .00000225  00000+0  73123-4 0  9993
2 43922  86.3973 207.3604 0001910  92.7079 267.4335 14.34219345315662
IRIDIUM 176             
1 43923U 19002B   25021.56613065  .00000863  00000+0  13300-3 0  9991
2 43923  86.6100 207.3761 0001501  58.8929 301.2436 14.72247724323971
IRIDIUM 168             
1 43924U 19002C   25021.58683786 -.00000071  00000+0 -32303-4 0  9999
2 43924  86.3978 207.4258 0001866  86.2107 273.9302 14.34217716315649
IRIDIUM 173             
1 43925U 19002D   25021.57415350 -.00000068  00000+0 -31519-4 0  9993
2 43925  86.3977 207.3413 0001823  93.2039 266.9366 14.34217622315622
IRIDIUM 169             
1 43926U 19002E   25021.59999777  .00000729  00000+0  23192-3 0  9995
2 43926  86.4200 238.9346 0001616 141.9913 218.1399 14.38618557316677
IRIDIUM 172             
1 43927U 19002F   25021.56781010  .00000028  00000+0  28434-5 0  9990
2 43927  86.3972 207.3500 0001950  87.5658 272.5761 14.34217549315631
IRIDIUM 175             
1 43928U 19002G   25021.49278342  .00003023  00000+0  47519-3 0  9993
2 43928  86.1541 168.2787 0002871 114.6608 245.4908 14.72258448323955
